STARLINK-35206          
1 65614U 25207Y   26113.11132937  .00006614  00000+0  46202-3 0  9991
2 65614  97.5845 182.4175 0001137 185.7689 174.3525 15.05660713 34835
STARLINK-35174          
1 65615U 25207Z   26113.18608824  .00003693  00000+0  25999-3 0  9996
2 65615  97.5814 182.4694 0001328 174.9626 185.1614 15.05654380 34956
STARLINK-35247          
1 65622U 25210A   26113.26245414  .00031355  00000+0  10658-2 0  9990
2 65622  53.1571 100.1649 0000879  88.5609 271.5493 15.30213963 34557
STARLINK-35239          
1 65623U 25210B   26113.22549535  .00015524  00000+0  53507-3 0  9999
2 65623  53.1620  99.9340 0001407 104.4856 255.6301 15.30206067 34554
STARLINK-35151          
1 65624U 25210C   26113.26876302  .00009500  00000+0  33232-3 0  9999
2 65624  53.1618 100.2019 0001340  75.3998 284.7151 15.30214624 34475
STARLINK-35153          
1 65625U 25210D   26113.22021857  .00022541  00000+0  77075-3 0  9996
2 65625  53.1624  99.8988 0001672  99.5156 260.6034 15.30205111 34477
STARLINK-35225          
1 65626U 25210E   26113.11174963  .00014796  00000+0  51064-3 0  9995
2 65626  53.1601 100.6487 0001431 116.2439 243.8709 15.30203369 34534
STARLINK-35217          
1 65627U 25210F   26112.94957556  .00015274  00000+0  52671-3 0  9990
2 65627  53.1581 101.7642 0001738  87.9554 272.1646 15.30203084 34505
STARLINK-35128          
1 65628U 25210G   26113.12124554  .00011891  00000+0  41306-3 0  9990
2 65628  53.1578 100.7069 0001115  69.6119 290.5001 15.30193114 34531
STARLINK-35135          
1 65629U 25210H   26113.11597060  .00013189  00000+0  45660-3 0  9995
2 65629  53.1574 100.6716 0001315  90.9504 269.1647 15.30202485 34533
STARLINK-34877          
1 65630U 25210J   26113.10541895  .00016416  00000+0  56505-3 0  9997
2 65630  53.1608 100.6053 0001005  87.0835 273.0281 15.30206784 34531
STARLINK-35104          
1 65631U 25210K   26113.10226751  .00015591  00000+0  53759-3 0  9990
2 65631  53.1615 100.5871 0001658  88.0399 272.0792 15.30189679 34525
STARLINK-35117          
1 65632U 25210L   26112.69148126  .00016459  00000+0  56668-3 0  9999
2 65632  53.1598 102.9962 0001194  91.7239 268.3899 15.30195097 34462
STARLINK-35103          
1 65633U 25210M   26113.10858571  .00023224  00000+0  79348-3 0  9997
2 65633  53.1595 100.6266 0000988  62.2357 297.8744 15.30212439 34530
STARLINK-35123          
1 65634U 25210N   26113.26559500  .00024821  00000+0  84721-3 0  9990
2 65634  53.1590 100.1789 0001237  73.7514 286.3622 15.30205722 34558
STARLINK-35150          
1 65635U 25210P   26112.94853536  .00012887  00000+0  44672-3 0  9991
2 65635  53.1591 101.7552 0001500  90.1319 269.9854 15.30181437 34509
STARLINK-35209          
1 65636U 25210Q   26113.12441943  .00011476  00000+0  39907-3 0  9996
2 65636  53.1587 100.7269 0001243  90.8324 269.2819 15.30193786 34533
STARLINK-35147          
1 65637U 25210R   26113.11913638  .00010423  00000+0  36351-3 0  9992
2 65637  53.1589 100.6921 0001338  94.3650 265.7504 15.30203007 34536
STARLINK-35213          
1 65638U 25210S   26113.11491581  .00021465  00000+0  73434-3 0  9992
2 65638  53.1563 100.6620 0001262  49.3503 310.7608 15.30218455 34537
STARLINK-35127          
1 65639U 25210T   26113.10647424  .00021629  00000+0  73991-3 0  9991
2 65639  53.1590 100.6099 0000911  55.2996 304.8090 15.30214536 34535
STARLINK-35091          
1 65640U 25210U   26113.10330297  .00009914  00000+0  34625-3 0  9994
2 65640  53.1611 100.5891 0001019  77.0521 283.0594 15.30214162 34538
STARLINK-35134          
1 65641U 25210V   26112.96845873  .00019707  00000+0  67528-3 0  9998
2 65641  53.1605 101.1711 0001641  82.9156 277.2031 15.30221889 34513
STARLINK-35109          
1 65642U 25210W   26113.22338298  .00023046  00000+0  78777-3 0  9996
2 65642  53.1608  99.9153 0001216 107.9948 252.1185 15.30202523 34556
STARLINK-35062          
1 65643U 25210X   26113.22232841  .00025650  00000+0  87506-3 0  9997
2 65643  53.1609  99.9091 0001286 107.2774 252.8368 15.30203703 34557
STARLINK-35141          
1 65644U 25210Y   26112.95169222 -.00018027  00000+0 -59954-3 0  9997
2 65644  53.1601 101.7724 0000838 103.5012 256.6082 15.30117230 34500
STARLINK-35237          
1 65645U 25210Z   26112.69359033  .00013309  00000+0  46089-3 0  9991
2 65645  53.1591 103.0087 0000724  92.0262 268.0821 15.30184785 34461
STARLINK-35183          
1 65646U 25210AA  26112.68408963  .00012977  00000+0  44940-3 0  9992
2 65646  53.1585 102.9475 0000277  90.4725 269.6308 15.30206142 34462
STARLINK-35202          
1 65647U 25210AB  26113.26665049  .00003279  00000+0  12280-3 0  9995
2 65647  53.1581 100.1855 0001321  89.8050 270.3102 15.30196454 34550
STARLINK-34868          
1 65648U 25210AC  26113.12757616  .00011504  00000+0  39984-3 0  9993
2 65648  53.1576 100.7354 0001023  80.6021 279.5095 15.30207660 34533
STARLINK-35079          
1 65649U 25210AD  26112.93796638  .00014258  00000+0  49254-3 0  9999
2 65649  53.1595 101.6874 0001494  89.9409 270.1763 15.30204422 34505
