OBJECT_NAME,OBJECT_ID,EPOCH,MEAN_MOTION,ECCENTRICITY,INCLINATION,RA_OF_ASC_NODE,ARG_OF_PERICENTER,MEAN_ANOMALY,EPHEMERIS_TYPE,CLASSIFICATION_TYPE,NORAD_CAT_ID,ELEMENT_SET_NO,REV_AT_EPOCH,BSTAR,MEAN_MOTION_DOT,MEAN_MOTION_DDOT
STARLINK-35206,2025-207Y,2026-04-23T02:40:18.857568,15.05660713,.00011378,97.5845,182.4175,185.7689,174.3525,0,U,65614,999,3483,.46202287E-3,.6614E-4,0
STARLINK-35174,2025-207Z,2026-04-23T04:27:58.023936,15.05654380,.00013286,97.5814,182.4694,174.9626,185.1614,0,U,65615,999,3495,.25998984E-3,.3693E-4,0
STARLINK-35247,2025-210A,2026-04-23T06:17:56.037696,15.30213963,.0000879,53.1571,100.1649,88.5609,271.5493,0,U,65622,999,3455,.10658299E-2,.31355E-3,0
STARLINK-35239,2025-210B,2026-04-23T05:24:42.798240,15.30206067,.00014077,53.1620,99.9340,104.4856,255.6301,0,U,65623,999,3455,.53507405E-3,.15524E-3,0
STARLINK-35151,2025-210C,2026-04-23T06:27:01.124928,15.30214624,.00013401,53.1618,100.2019,75.3998,284.7151,0,U,65624,999,3447,.33231503E-3,.95E-4,0
STARLINK-35153,2025-210D,2026-04-23T05:17:06.884448,15.30205111,.00016726,53.1624,99.8988,99.5156,260.6034,0,U,65625,999,3447,.77075173E-3,.22541E-3,0
STARLINK-35225,2025-210E,2026-04-23T02:40:55.168032,15.30203369,.00014313,53.1601,100.6487,116.2439,243.8709,0,U,65626,999,3453,.51063562E-3,.14796E-3,0
STARLINK-35217,2025-210F,2026-04-22T22:47:23.328384,15.30203084,.0001738,53.1581,101.7642,87.9554,272.1646,0,U,65627,999,3450,.52671E-3,.15274E-3,0
STARLINK-35128,2025-210G,2026-04-23T02:54:35.614656,15.30193114,.00011157,53.1578,100.7069,69.6119,290.5001,0,U,65628,999,3453,.41305685E-3,.11891E-3,0
STARLINK-35135,2025-210H,2026-04-23T02:46:59.859840,15.30202485,.00013155,53.1574,100.6716,90.9504,269.1647,0,U,65629,999,3453,.456601E-3,.13189E-3,0
STARLINK-34877,2025-210J,2026-04-23T02:31:48.197280,15.30206784,.00010053,53.1608,100.6053,87.0835,273.0281,0,U,65630,999,3453,.56504531E-3,.16416E-3,0
STARLINK-35104,2025-210K,2026-04-23T02:27:15.912864,15.30189679,.00016586,53.1615,100.5871,88.0399,272.0792,0,U,65631,999,3452,.53759177E-3,.15591E-3,0
STARLINK-35117,2025-210L,2026-04-22T16:35:43.980864,15.30195097,.00011948,53.1598,102.9962,91.7239,268.3899,0,U,65632,999,3446,.56668E-3,.16459E-3,0
STARLINK-35103,2025-210M,2026-04-23T02:36:21.805344,15.30212439,.00009881,53.1595,100.6266,62.2357,297.8744,0,U,65633,999,3453,.79347791E-3,.23224E-3,0
STARLINK-35123,2025-210N,2026-04-23T06:22:27.408000,15.30205722,.0001237,53.1590,100.1789,73.7514,286.3622,0,U,65634,999,3455,.84721186E-3,.24821E-3,0
STARLINK-35150,2025-210P,2026-04-22T22:45:53.455104,15.30181437,.00015,53.1591,101.7552,90.1319,269.9854,0,U,65635,999,3450,.44672E-3,.12887E-3,0
STARLINK-35209,2025-210Q,2026-04-23T02:59:09.838752,15.30193786,.00012435,53.1587,100.7269,90.8324,269.2819,0,U,65636,999,3453,.39906694E-3,.11476E-3,0
STARLINK-35147,2025-210R,2026-04-23T02:51:33.383232,15.30203007,.00013389,53.1589,100.6921,94.3650,265.7504,0,U,65637,999,3453,.36350902E-3,.10423E-3,0
STARLINK-35213,2025-210S,2026-04-23T02:45:28.725984,15.30218455,.00012624,53.1563,100.6620,49.3503,310.7608,0,U,65638,999,3453,.73433542E-3,.21465E-3,0
STARLINK-35127,2025-210T,2026-04-23T02:33:19.374336,15.30214536,.00009119,53.1590,100.6099,55.2996,304.8090,0,U,65639,999,3453,.73991105E-3,.21629E-3,0
STARLINK-35091,2025-210U,2026-04-23T02:28:45.376608,15.30214162,.00010195,53.1611,100.5891,77.0521,283.0594,0,U,65640,999,3453,.34625278E-3,.9914E-4,0
STARLINK-35134,2025-210V,2026-04-22T23:14:34.834272,15.30221889,.0001641,53.1605,101.1711,82.9156,277.2031,0,U,65641,999,3451,.67528E-3,.19707E-3,0
STARLINK-35109,2025-210W,2026-04-23T05:21:40.289472,15.30202523,.00012168,53.1608,99.9153,107.9948,252.1185,0,U,65642,999,3455,.78776531E-3,.23046E-3,0
STARLINK-35062,2025-210X,2026-04-23T05:20:09.174624,15.30203703,.00012869,53.1609,99.9091,107.2774,252.8368,0,U,65643,999,3455,.87506177E-3,.2565E-3,0
STARLINK-35141,2025-210Y,2026-04-22T22:50:26.207808,15.30117230,.0000838,53.1601,101.7724,103.5012,256.6082,0,U,65644,999,3450,-.59954E-3,-.18027E-3,0
STARLINK-35237,2025-210Z,2026-04-22T16:38:46.204512,15.30184785,.00007247,53.1591,103.0087,92.0262,268.0821,0,U,65645,999,3446,.4608907E-3,.13309E-3,0
STARLINK-35183,2025-210AA,2026-04-22T16:25:05.344032,15.30206142,.00002779,53.1585,102.9475,90.4725,269.6308,0,U,65646,999,3446,.44939832E-3,.12977E-3,0
STARLINK-35202,2025-210AB,2026-04-23T06:23:58.602336,15.30196454,.00013219,53.1581,100.1855,89.8050,270.3102,0,U,65647,999,3455,.12279965E-3,.3279E-4,0
STARLINK-34868,2025-210AC,2026-04-23T03:03:42.580224,15.30207660,.00010236,53.1576,100.7354,80.6021,279.5095,0,U,65648,999,3453,.39984479E-3,.11504E-3,0
STARLINK-35079,2025-210AD,2026-04-22T22:30:40.295232,15.30204422,.0001494,53.1595,101.6874,89.9409,270.1763,0,U,65649,999,3450,.49254E-3,.14258E-3,0
